ONEWEB-0560             
1 55145U 23004F   25326.61477929  .00000067  00000+0  13721-3 0  9991
2 55145  87.9192  16.5032 0002041  94.2204 265.9161 13.18684205142480
ONEWEB-0565             
1 55146U 23004G   25326.68405890 -.00000003  00000+0 -40094-4 0  9993
2 55146  87.9186  16.5378 0001818  82.6697 277.4641 13.18684026142487
ONEWEB-0567             
1 55147U 23004H   25326.67746302 -.00000165  00000+0 -45220-3 0  9993
2 55147  87.9194  16.5046 0002005  87.3390 272.7971 13.18683920142486
ONEWEB-0569             
1 55148U 23004J   25326.64302788  .00000159  00000+0  39929-3 0  9997
2 55148  87.9007   1.2602 0002581  80.7124 279.4297 13.13468718143061
ONEWEB-0570             
1 55149U 23004K   25326.66757744  .00000019  00000+0  15280-4 0  9996
2 55149  87.9189  16.5063 0001341  90.8742 269.2544 13.18686855142479
ONEWEB-0571             
1 55150U 23004L   25326.66098069 -.00000018  00000+0 -78886-4 0  9998
2 55150  87.9184  16.5081 0002295  65.8126 294.3246 13.18686223142481
ONEWEB-0572             
1 55151U 23004M   25326.74513910  .00000115  00000+0  26313-3 0  9998
2 55151  87.9133  46.9183 0001761  99.0103 261.1228 13.17647537140290
ONEWEB-0573             
1 55152U 23004N   25326.65436029 -.00000151  00000+0 -41672-3 0  9991
2 55152  87.9181  16.5158 0001631  71.0576 289.0732 13.18687004142474
